
I'm trying to memorize the TAF format so I'm writing something to parse it.

It's a fun format because pretty much everything is optional, number groups (and dates!)
can mean different things without any real indication 🎉

I'm putting it on GitHub so I can get some little green squares for motivation.


```
./taf-decoder "TAF KLAX 022012Z 0220/0324 25007KT P6SM OVC023
  FM030500 25006KT P6SM BKN025
  FM031100 VRB03KT P6SM OVC015
  FM031700 24006KT P6SM BKN022
  FM032000 26012KT P6SM SCT025"
```

Up next: PIREPs
